IRIDIUM 106             
1 41917U 17003A   24124.87423773  .00000382  00000+0  12921-3 0  9997
2 41917  86.3991  52.1030 0001990  80.5921 279.5499 14.34214609382221
IRIDIUM 103             
1 41918U 17003B   24124.86155721  .00000388  00000+0  13138-3 0  9999
2 41918  86.3991  52.0104 0002553  78.2869 281.8613 14.34216549382245
IRIDIUM 109             
1 41919U 17003C   24125.21674295  .00000262  00000+0  86515-4 0  9993
2 41919  86.3992  51.9086 0002538  87.9508 272.1978 14.34217027382287
IRIDIUM 102             
1 41920U 17003D   24124.83618361  .00000329  00000+0  11040-3 0  9998
2 41920  86.3992  52.0077 0002318  87.6268 272.5194 14.34218506382295
IRIDIUM 105             
1 41921U 17003E   24124.94646000  .00000259  00000+0  85501-4 0  9998
2 41921  86.4020  20.3989 0002412  85.1412 275.0059 14.34215246384162
IRIDIUM 104             
1 41922U 17003F   24124.84886900  .00000412  00000+0  13995-3 0  9991
2 41922  86.3991  52.0331 0002541  86.6876 273.4610 14.34216855382288
IRIDIUM 114             
1 41923U 17003G   24124.85521157  .00000218  00000+0  70787-4 0  9990
2 41923  86.3992  52.0166 0002030  86.2663 273.8765 14.34218219382268
IRIDIUM 108             
1 41924U 17003H   24125.16257484  .00000410  00000+0  13917-3 0  9990
2 41924  86.4013  20.2366 0002081  82.0736 278.0696 14.34219116384184
